[{"OBJECT_NAME":"STARLINK-30414","OBJECT_ID":"2023-141V","EPOCH":"2026-03-09T21:38:14.270784","MEAN_MOTION":15.30188631,"ECCENTRICITY":0.00011283,"INCLINATION":53.1588,"RA_OF_ASC_NODE":282.91,"ARG_OF_PERICENTER":111.6124,"MEAN_ANOMALY":248.4997,"EPHEMERIS_TYPE":0,"CLASSIFICATION_TYPE":"U","NORAD_CAT_ID":57859,"ELEMENT_SET_NO":999,"REV_AT_EPOCH":14036,"BSTAR":6.948816e-6,"MEAN_MOTION_DOT":-1.53e-6,"MEAN_MOTION_DDOT":0},{"OBJECT_NAME":"ELEKTRON 3 DEB","OBJECT_ID":"1964-038C","EPOCH":"2026-03-09T14:47:36.581568","MEAN_MOTION":12.78113746,"ECCENTRICITY":0.1255449,"INCLINATION":60.6702,"RA_OF_ASC_NODE":86.4515,"ARG_OF_PERICENTER":334.4391,"MEAN_ANOMALY":19.9275,"EPHEMERIS_TYPE":0,"CLASSIFICATION_TYPE":"U","NORAD_CAT_ID":831,"ELEMENT_SET_NO":999,"REV_AT_EPOCH":35318,"BSTAR":0.0029694,"MEAN_MOTION_DOT":0.00032212,"MEAN_MOTION_DDOT":0}]
